OBJECT_NAME,OBJECT_ID,EPOCH,MEAN_MOTION,ECCENTRICITY,INCLINATION,RA_OF_ASC_NODE,ARG_OF_PERICENTER,MEAN_ANOMALY,EPHEMERIS_TYPE,CLASSIFICATION_TYPE,NORAD_CAT_ID,ELEMENT_SET_NO,REV_AT_EPOCH,BSTAR,MEAN_MOTION_DOT,MEAN_MOTION_DDOT
ONEWEB-0579,2023-043Y,2026-07-11T14:52:33.944448,13.21826661,.00022476,87.9267,239.1071,108.3296,251.8083,0,U,56068,999,16147,.6173834E-4,.39E-6,0
ONEWEB-0581,2023-043Z,2026-07-12T01:51:15.843744,13.16594847,.0001493,87.9075,223.8408,86.6151,273.5151,0,U,56069,999,16223,.28291E-3,.121E-5,0
ONEWEB-0609,2023-043AA,2026-07-12T03:04:34.917024,13.15547121,.0002149,87.8984,254.2417,98.0133,262.1241,0,U,56070,999,15971,-.19942E-3,-.62E-6,0
ONEWEB-0613,2023-043AB,2026-07-11T16:04:01.776000,13.15547764,.00021884,87.8984,254.3457,103.5199,256.6175,0,U,56071,999,15965,-.24480032E-3,-.79E-6,0
ONEWEB-0630,2023-043AC,2026-07-12T02:54:18.980928,13.15550028,.0002194,87.8986,254.2292,104.5009,255.6364,0,U,56072,999,15970,-.73929E-4,-.15E-6,0
ONEWEB-0632,2023-043AD,2026-07-12T02:47:28.897152,13.15547906,.0001854,87.8988,254.2465,98.2057,261.9284,0,U,56073,999,15970,-.31705E-3,-.107E-5,0
ONEWEB-0633,2023-043AE,2026-07-11T17:30:44.438400,13.15549139,.00022547,87.8991,254.3015,103.9893,256.1488,0,U,56074,999,15963,-.287933E-5,.12E-6,0
ONEWEB-0634,2023-043AF,2026-07-12T02:17:49.304256,13.15547940,.0002358,87.8989,254.2665,88.8615,271.2785,0,U,56075,999,15967,.31682E-3,.132E-5,0
ONEWEB-0635,2023-043AG,2026-07-11T17:03:21.619296,13.15547281,.00018527,87.8999,254.3082,96.2876,263.8465,0,U,56076,999,15965,-.19399752E-4,.6E-7,0
ONEWEB-0636,2023-043AH,2026-07-12T03:49:04.644192,13.15547565,.0001938,87.8994,254.2251,105.5039,254.6306,0,U,56077,999,15969,.44662E-3,.181E-5,0
ONEWEB-0637,2023-043AJ,2026-07-12T03:39:57.485088,13.15547861,.0002031,87.8983,254.2406,88.5936,271.5427,0,U,56078,999,15971,.28834E-3,.121E-5,0
ONEWEB-0647,2023-043AK,2026-07-12T03:33:06.712704,13.15548841,.0001966,87.8984,254.2541,100.2863,259.8489,0,U,56079,999,15970,.23409E-3,.101E-5,0
ONEWEB-0651,2023-043AL,2026-07-12T03:26:16.290240,13.15548019,.0001873,87.8984,254.2482,93.0646,267.0699,0,U,56080,999,16090,.4107E-3,.167E-5,0
ONEWEB-0718,2023-043AM,2026-07-12T03:19:25.231008,13.15549609,.0002587,87.8984,254.2296,94.8069,265.3357,0,U,56081,999,15971,.1433E-3,.67E-6,0
ONEWEB-0561,2023-068A,2026-07-11T17:49:43.095360,13.20769420,.00017538,87.9188,269.5505,101.7017,258.4313,0,U,56710,999,15274,-.1831828E-3,-.61E-6,0
ONEWEB-0668,2023-068B,2026-07-12T01:14:47.165856,13.16594597,.0002357,87.9076,223.8339,83.0871,277.0528,0,U,56711,999,15505,.62929E-4,.37E-6,0
ONEWEB-0676,2023-068C,2026-07-12T01:26:11.637888,13.16594325,.0001741,87.9073,223.8391,94.4564,265.6766,0,U,56712,999,15497,.19031E-3,.86E-6,0
ONEWEB-0677,2023-068D,2026-07-11T17:32:46.668480,13.20771475,.00019131,87.9189,269.5444,89.6842,270.4510,0,U,56713,999,15304,-.13243703E-3,-.41E-6,0
ONEWEB-0678,2023-068E,2026-07-12T04:23:18.737664,13.15548220,.0001997,87.8997,254.2153,105.8539,254.2812,0,U,56714,999,15257,-.19135E-4,.6E-7,0
ONEWEB-0679,2023-068F,2026-07-12T00:26:54.534336,13.16594152,.0002046,87.9083,223.8374,77.9494,282.1866,0,U,56715,999,15499,.14877E-3,.7E-6,0
ONEWEB-0680,2023-068G,2026-07-12T01:49:00.700320,13.21826244,.0002369,87.9243,239.0199,82.5098,277.6305,0,U,56716,999,15438,.29421E-3,.135E-5,0
ONEWEB-0681,2023-068H,2026-07-12T01:21:09.294912,13.21827481,.0001061,87.9238,239.0248,81.4687,278.6567,0,U,56717,999,15437,-.62464E-4,-.13E-6,0
ONEWEB-0682,2023-068J,2026-07-11T16:10:53.077152,13.15547680,.00023194,87.8990,254.3171,85.3466,274.7929,0,U,56718,999,15267,-.25532995E-3,-.83E-6,0
ONEWEB-0683,2023-068K,2026-07-12T03:42:14.422176,13.15548187,.0002224,87.8998,254.2214,93.2312,266.9072,0,U,56719,999,15270,.37364E-3,.153E-5,0
ONEWEB-0684,2023-068L,2026-07-11T15:06:59.379552,13.15549372,.0002887,87.8993,254.3155,122.9867,237.1541,0,U,56720,999,15246,.31354896E-3,.131E-5,0
ONEWEB-0686,2023-068M,2026-07-11T14:22:44.395680,13.16593401,.00024437,87.9069,223.9422,94.4079,265.7331,0,U,56721,999,15492,.59906703E-4,.36E-6,0
ONEWEB-0694,2023-068N,2026-07-12T01:28:28.269120,13.16593562,.0002377,87.9091,223.8197,84.1003,276.0399,0,U,56722,999,15504,.23086E-3,.101E-5,0
ONEWEB-0696,2023-068P,2026-07-12T02:52:02.106912,13.15549373,.000199,87.8988,254.2542,111.2859,248.8483,0,U,56723,999,15264,-.31054E-3,-.104E-5,0
ONEWEB-0703,2023-068Q,2026-07-12T03:05:43.456416,13.15547597,.0001606,87.8983,254.2335,123.0750,237.0535,0,U,56724,999,15253,-.2633E-3,-.86E-6,0
ONEWEB-0721,2023-068R,2026-07-12T02:34:39.436032,13.22470964,.0001803,86.6751,77.5608,78.7964,281.3371,0,U,56725,999,16123,.86193E-4,.5E-6,0
